DMSP 5D-3 F16 (USA 172) 
1 28054U 03048A   26157.20309231  .00000011  00000+0  29527-4 0  9995
2 28054  98.9893 180.9584 0007199 169.2961 265.3320 14.14482081167932
METEOSAT-9 (MSG-2)      
1 28912U 05049B   26156.84400411  .00000135  00000+0  00000+0 0  9999
2 28912   9.3350  54.2780 0002326  40.8445 148.6919  1.00267887  6887
DMSP 5D-3 F17 (USA 191) 
1 29522U 06050A   26157.20943586  .00000052  00000+0  48929-4 0  9991
2 29522  98.7378 164.0041 0011329  87.4078 272.8392 14.14991429 10873
FENGYUN 3A              
1 32958U 08026A   26156.84043034  .00000090  00000+0  63350-4 0  9998
2 32958  98.6881  97.8861 0009100 154.0282 206.1353 14.19568788933798
GOES 14                 
1 35491U 09033A   26156.35465316 -.00000229  00000+0  00000+0 0  9992
2 35491   1.6591  83.1855 0002095   0.7745  86.0901  1.00115245  6475
DMSP 5D-3 F18 (USA 210) 
1 35951U 09057A   26157.18007704  .00000294  00000+0  17512-3 0  9995
2 35951  98.9033 137.9735 0009900 284.6035  75.4040 14.14890769858031
EWS-G2 (GOES 15)        
1 36411U 10008A   26157.14611844  .00000032  00000+0  00000+0 0  9997
2 36411   1.2469  83.0438 0005519  36.4160 251.2828  1.00275962 59526
COMS 1                  
1 36744U 10032A   26152.73864208 -.00000334  00000+0  00000+0 0  9993
2 36744   4.7700  75.5552 0001064 351.7830 216.9341  1.00271905 50939
FENGYUN 3B              
1 37214U 10059A   26157.28577810  .00000158  00000+0  10495-3 0  9996
2 37214  98.9618 203.2535 0021364 215.6265 277.3665 14.14839130805882
SUOMI NPP               
1 37849U 11061A   26157.13325086  .00000094  00000+0  65690-4 0  9991
2 37849  98.7951  98.0851 0002117  30.4328 329.6971 14.19515099756878
METEOSAT-10 (MSG-3)     
1 38552U 12035B   26157.06231216  .00000007  00000+0  00000+0 0  9991
2 38552   4.6447  61.0684 0001764 336.0577 239.9754  1.00275700 50741
METOP-B                 
1 38771U 12049A   26157.20856775  .00000112  00000+0  71141-4 0  9994
2 38771  98.6508 208.9263 0002847  44.7698 315.3709 14.21429780711705
INSAT-3D                
1 39216U 13038B   26156.94534373 -.00000326  00000+0  00000+0 0  9994
2 39216   1.8964  82.6835 0000849 350.1240 291.3787  1.00268431 46966
FENGYUN 3C              
1 39260U 13052A   26157.23075911  .00000113  00000+0  78486-4 0  9991
2 39260  98.4974 131.6091 0015713  57.4292 302.8397 14.15752639657014
METEOR-M 2              
1 40069U 14037A   26157.23513588 -.00000081  00000+0 -17893-4 0  9992
2 40069  98.5114 133.3622 0007055  70.6952 289.4989 14.21457813617767
HIMAWARI-8              
1 40267U 14060A   26156.94751041 -.00000263  00000+0  00000+0 0  9991
2 40267   0.0149  38.8205 0000929  55.0701 282.2629  1.00271882 42645
FENGYUN 2G              
1 40367U 14090A   26156.65428056 -.00000291  00000+0  00000+0 0  9991
2 40367   5.6094  72.9555 0003553 153.6086   2.6058  1.00278137 41885
METEOSAT-11 (MSG-4)     
1 40732U 15034A   26157.13545838  .00000076  00000+0  00000+0 0  9998
2 40732   3.1747  71.1710 0001662   4.6300 236.9092  1.00276865  7109
ELEKTRO-L 2             
1 41105U 15074A   26156.98814725 -.00000105  00000+0  00000+0 0  9997
2 41105   6.6659  70.6588 0001304 282.3931 242.6125  1.00272284 38396
SENTINEL-3A             
1 41335U 16011A   26157.13604635  .00000133  00000+0  72843-4 0  9998
2 41335  98.6250 224.6779 0001326 105.1410 254.9917 14.26737024536488
INSAT-3DR               
1 41752U 16054A   26157.08795009 -.00000064  00000+0  00000+0 0  9993
2 41752   0.0776  87.8993 0010300 186.9610  85.3131  1.00270821 35707
HIMAWARI-9              
1 41836U 16064A   26156.94759707 -.00000261  00000+0  00000+0 0  9995
2 41836   0.0408 167.8179 0000965 298.9963 269.4538  1.00274382 35092
GOES 16                 
1 41866U 16071A   26157.11285251 -.00000078  00000+0  00000+0 0  9990
2 41866   0.3116  85.6375 0000579 318.2771 146.5885  1.00271023 34990
FENGYUN 4A              
1 41882U 16077A   26157.30065569 -.00000343  00000+0  00000+0 0  9998
2 41882   2.2948  80.4019 0008189 151.6843 254.6225  1.00275378 34822
CYGFM05                 
1 41884U 16078A   26156.89064609  .00030137  00000+0  41556-3 0  9996
2 41884  34.9577 335.3662 0007329  34.7933 325.3269 15.56152582526991
CYGFM04                 
1 41885U 16078B   26157.08780885  .00039040  00000+0  44957-3 0  9990
2 41885  34.9330 302.3031 0006040  82.7249 277.4163 15.60875661527261
CYGFM02                 
1 41886U 16078C   26156.79020430  .00042470  00000+0  43700-3 0  9997
2 41886  34.9411 299.1495 0007038  82.1301 278.0225 15.63734478527382
CYGFM01                 
1 41887U 16078D   26156.88422731  .00031840  00000+0  42827-3 0  9996
2 41887  34.9408 336.5564 0007150  28.4006 331.7107 15.56811551526949
CYGFM08                 
1 41888U 16078E   26157.11891340  .00035879  00000+0  43686-3 0  9990
2 41888  34.9440 314.8693 0008006  64.7259 295.4295 15.59420370527248
CYGFM07                 
1 41890U 16078G   26156.82271036  .00037229  00000+0  45196-3 0  9993
2 41890  34.9454 305.1911 0006438  79.2850 280.8600 15.59506302527223
CYGFM03                 
1 41891U 16078H   26157.11372431  .00037349  00000+0  45325-3 0  9995
2 41891  34.9409 305.1956 0005956  68.6143 291.5217 15.59518668527247
